MOLNIYA 2-9             
1 07276U 74026A   23051.87428241  .00000136  00000+0  00000+0 0  9996
2 07276  64.2814 193.1851 6394842 277.9769  18.7214  2.45096442255472
MOLNIYA 2-10            
1 07376U 74056A   23052.99112275 -.00001215  00000+0  00000+0 0  9991
2 07376  64.5009  68.6259 6782896 284.5767  13.7806  2.01155487355405
MOLNIYA 1-S             
1 07392U 74060A   23052.28729854  .00000131  00000+0  00000+0 0  9998
2 07392   4.4877 279.0728 0009920 214.8494 161.5161  1.00270296122025
MOLNIYA 1-29            
1 07780U 75036A   23052.42248716  .00000145  00000+0 -43651-1 0  9999
2 07780  63.4137 188.3291 6791525 287.5519  12.8430  2.00579171350617
MOLNIYA 2-14            
1 08195U 75081A   23040.70668511 -.00000315  00000+0  00000+0 0  9995
2 08195  63.3884 163.0057 6727259 291.8913  12.1227  2.02062783347739
MOLNIYA 1-32            
1 08601U 76006A   23051.48638883 -.00001318  00000+0  00000+0 0  9995
2 08601  63.5505 264.2872 7133370 283.9314  11.7721  2.00040974 57621
MOLNIYA 1-36            
1 09880U 77021A   23052.45068654 -.00001284  00000+0  00000+0 0  9996
2 09880  63.4650 236.8588 7044705 289.4863  10.8432  2.00506092234368
MOLNIYA 3-8             
1 10455U 77105A   23052.74841846 -.00000652  00000+0  24465-2 0  9995
2 10455  63.4362 320.3855 7316881 282.6503  11.1146  2.00440802332144
MOLNIYA 1-40            
1 10925U 78055A   23052.89096628 -.00000829  00000+0  00000+0 0  9990
2 10925  63.5960  12.4513 7269546 280.7166  11.8326  2.00593800327687
MOLNIYA 3-10            
1 11057U 78095A   23052.45332740 -.00000194  00000+0 -82726-3 0  9996
2 11057  63.2525 308.0490 5771761 312.1813  11.5483  4.09880373393937
MOLNIYA 3-13            
1 11896U 80063A   23052.17376902 -.00000148  00000+0  00000+0 0  9991
2 11896  62.7901 104.8532 7176027 276.7728  13.4082  2.00594890312083
MOLNIYA 1-49            
1 12156U 81009A   23051.60636155 -.00000150  00000+0  11355-2 0  9999
2 12156  61.6878 126.5225 7360272 266.3864  15.2634  2.05706662226597
MOLNIYA 1-52            
1 13012U 81123A   23046.66379918  .00001631  00000+0  29539-1 0  9995
2 13012  61.6418 243.8713 7187593 258.2448  20.0620  2.00726717301451
MOLNIYA 1-53            
1 13070U 82015A   23052.39690374  .00000033  00000+0 -28162-1 0  9996
2 13070  62.5297 184.1780 6959733 283.1682  13.0167  2.00344501300252
MOLNIYA 3-20            
1 13875U 83015A   23051.72770108 -.00000819  00000+0 -26347-3 0  9998
2 13875  62.5242 313.3649 7374648 260.5357  17.3676  2.00844257228692
MOLNIYA 1-56            
1 13890U 83019A   23051.24930015 -.00001157  00000+0  77587-3 0  9998
2 13890  62.8315 337.9879 7442841 266.3509  14.7355  1.99942060291552
MOLNIYA 1-62            
1 15214U 84089A   23045.17069386  .00009439  10365-5  51717-3 0  9995
2 15214  62.9211 330.1209 7309191 273.9344  13.4055  2.27989084249547
MOLNIYA 1-63            
1 15429U 84124A   23052.17581682 -.00001070  00000+0  00000+0 0  9997
2 15429  63.6975 143.4130 6743107 257.9024  20.0637  2.00641619279748
MOLNIYA 3-24            
1 15738U 85040A   23053.13239684 -.00000065  00000+0  11932-3 0  9990
2 15738  63.5488  35.3457 6876059 247.2601  30.0024  2.55631227310286
MOLNIYA 3-27            
1 16393U 85117A   23048.99259692 -.00000018  00000+0  00000+0 0  9990
2 16393  64.2517  48.6073 7069051 246.9050  27.8588  2.12398334279394
MOLNIYA 1-69            
1 17078U 86089A   23052.49254789  .00001314  00000+0  00000+0 0  9991
2 17078  64.0313 162.5740 6727900 256.0269  26.0057  2.00847111265825
MOLNIYA 3-31            
1 17328U 87008A   23051.15152957 -.00000361  00000+0  00000+0 0  9999
2 17328  63.6339  98.0428 7166771 253.1354  22.8752  2.00653833260837
MOLNIYA 1-71            
1 18946U 88017A   23051.15561714  .00000194  00000+0  00000+0 0  9995
2 18946  63.3272  90.1221 7275925 256.3642  20.0935  2.00584178256022
MOLNIYA 1-75            
1 19807U 89014A   23048.41313551 -.00000401  00000+0  00000+0 0  9991
2 19807  63.9384 258.2305 6765902 265.7103  20.7106  2.00513311248910
MOLNIYA 1-80            
1 21118U 91012A   23053.09309049 -.00000193  00000+0  00000+0 0  9995
2 21118  65.1800 306.1389 6718908 274.3698  17.6992  2.05235643236110
MOLNIYA 3-40            
1 21196U 91022A   23052.09510923 -.00000846  00000+0  00000+0 0  9991
2 21196  65.0515 299.9815 6745855 271.2806  18.6441  2.03005192234737
MOLNIYA 1-81            
1 21426U 91043A   23051.76008240 -.00000088  00000+0  00000+0 0  9995
2 21426  63.9530 312.7562 7053139 265.6546  18.2542  2.00604285232142
MOLNIYA 3-41            
1 21706U 91065A   23052.48118142  .00001185  00000+0  00000+0 0  9991
2 21706  64.0726 138.1498 6958657 253.6367  24.8721  2.04341108231952
MOLNIYA 3-42            
1 22178U 92067A   23052.39446113  .00000172  00000+0  00000+0 0  9995
2 22178  64.6762 189.9205 6423747 262.9168  25.2976  2.20434513 85541
MOLNIYA 1-86            
1 22671U 93035A   23053.02393135  .00000427  00000+0  59381-3 0  9998
2 22671  63.0988  91.6495 4854611  11.0990 356.6971  5.62797508366299
MOLNIYA 1-87            
1 22949U 93079A   23046.56936120 -.00000982  00000+0  00000+0 0  9999
2 22949  64.2743  64.0937 6927051 282.7672  13.3668  2.02883299 79867
MOLNIYA 1-88            
1 23420U 94081A   23052.52577948  .00000079  00000+0  00000+0 0  9996
2 23420  64.2816 140.9266 5802631 278.3738  23.3277  3.34497565122039
MOLNIYA 3-47            
1 23642U 95042A   23051.84282462 -.00000698  00000+0  00000+0 0  9996
2 23642  64.4200  44.9230 6963881 282.9688  13.0931  2.01932040202036
MOLNIYA 1-90            
1 24960U 97054A   23053.18020192  .00000086  00000+0  22165-2 0  9993
2 24960  63.7389 106.3298 6098240 296.8001  14.3455  3.18690368216042
MOLNIYA 1-91            
1 25485U 98054A   23052.10494020  .00000127  00000+0  22925-2 0  9993
2 25485  63.1671 111.5519 6777602 291.8186  19.9079  2.36445572184267
MOLNIYA 3-50            
1 25847U 99036A   23052.70622850 -.00000251  00000+0  95759-3 0  9991
2 25847  63.3140 296.8918 7299435 282.6679  11.1561  2.00618837173110
